[
    {
        "CCSDS_OMM_VERS": "3.0",
        "COMMENT": "GENERATED VIA SPACE-TRACK.ORG API",
        "CREATION_DATE": "2025-04-14T03:05:54",
        "ORIGINATOR": "18 SPCS",
        "OBJECT_NAME": "BD-2-G7",
        "OBJECT_ID": "2016-037A",
        "CENTER_NAME": "EARTH",
        "REF_FRAME": "TEME",
        "TIME_SYSTEM": "UTC",
        "MEAN_ELEMENT_THEORY": "SGP4",
        "EPOCH": "2025-04-13T21:56:16.218240",
        "MEAN_MOTION": "1.00278306",
        "ECCENTRICITY": "0.00101990",
        "INCLINATION": "1.6081",
        "RA_OF_ASC_NODE": "68.0229",
        "ARG_OF_PERICENTER": "336.3152",
        "MEAN_ANOMALY": "237.4769",
        "EPHEMERIS_TYPE": "0",
        "CLASSIFICATION_TYPE": "U",
        "NORAD_CAT_ID": "41586",
        "ELEMENT_SET_NO": "999",
        "REV_AT_EPOCH": "258",
        "BSTAR": "0.00000000000000",
        "MEAN_MOTION_DOT": "-0.00000345",
        "MEAN_MOTION_DDOT": "0.0000000000000",
        "SEMIMAJOR_AXIS": "42162.904",
        "PERIOD": "1436.004",
        "APOAPSIS": "35827.771",
        "PERIAPSIS": "35741.767",
        "OBJECT_TYPE": "PAYLOAD",
        "RCS_SIZE": "LARGE",
        "COUNTRY_CODE": "PRC",
        "LAUNCH_DATE": "2016-06-12",
        "SITE": "XSC",
        "DECAY_DATE": null,
        "FILE": "4701263",
        "GP_ID": "285537391",
        "TLE_LINE0": "0 BD-2-G7",
        "TLE_LINE1": "1 41586U 16037A   25103.91407660 -.00000345  00000-0  00000-0 0  9998",
        "TLE_LINE2": "2 41586   1.6081  68.0229 0010199 336.3152 237.4769  1.00278306  2582"
    }
]